{
  "links" : {
    "next" : "https://api.nasa.gov/neo/rest/v1/feed?start_date=2002-01-23&end_date=2002-01-23&detailed=true&api_key=t0TVs3DtDT2H8Oy2Zy8m2eVrNsAVKAexjcZXUckd",
    "prev" : "https://api.nasa.gov/neo/rest/v1/feed?start_date=2002-01-21&end_date=2002-01-21&detailed=true&api_key=t0TVs3DtDT2H8Oy2Zy8m2eVrNsAVKAexjcZXUckd",
    "self" : "https://api.nasa.gov/neo/rest/v1/feed?start_date=2002-01-22&end_date=2002-01-22&detailed=true&api_key=t0TVs3DtDT2H8Oy2Zy8m2eVrNsAVKAexjcZXUckd"
  },
  "element_count" : 6,
  "near_earth_objects" : {
    "2002-01-22" : [ {
      "links" : {
        "self" : "https://api.nasa.gov/neo/rest/v1/neo/3409651?api_key=t0TVs3DtDT2H8Oy2Zy8m2eVrNsAVKAexjcZXUckd"
      },
      "neo_reference_id" : "3409651",
      "name" : "(2008 HF2)",
      "nasa_jpl_url" : "http://ssd.jpl.nasa.gov/sbdb.cgi?sstr=3409651",
      "absolute_magnitude_h" : 19.6,
      "estimated_diameter" : {
        "kilometers" : {
          "estimated_diameter_min" : 0.3195618867,
          "estimated_diameter_max" : 0.7145621017
        },
        "meters" : {
          "estimated_diameter_min" : 319.5618867213,
          "estimated_diameter_max" : 714.5621017269
        },
        "miles" : {
          "estimated_diameter_min" : 0.1985664891,
          "estimated_diameter_max" : 0.4440081677
        },
        "feet" : {
          "estimated_diameter_min" : 1048.4314204307,
          "estimated_diameter_max" : 2344.3639258298
        }
      },
      "is_potentially_hazardous_asteroid" : false,
      "close_approach_data" : [ {
        "close_approach_date" : "2002-01-22",
        "epoch_date_close_approach" : 1011686400000,
        "relative_velocity" : {
          "kilometers_per_second" : "33.2105210844",
          "kilometers_per_hour" : "119557.8759038965",
          "miles_per_hour" : "74288.6146137295"
        },
        "miss_distance" : {
          "astronomical" : "0.3649041989",
          "lunar" : "141.9477386475",
          "kilometers" : "54588892",
          "miles" : "33919964"
        },
        "orbiting_body" : "Earth"
      } ],
      "orbital_data" : {
        "orbit_id" : "23",
        "orbit_determination_date" : "2017-04-06 09:03:37",
        "orbit_uncertainty" : "1",
        "minimum_orbit_intersection" : ".175833",
        "jupiter_tisserand_invariant" : "3.802",
        "epoch_osculation" : "2458000.5",
        "eccentricity" : ".7460805009807657",
        "semi_major_axis" : "1.69720524133842",
        "inclination" : "14.58526317114164",
        "ascending_node_longitude" : "208.7424877511944",
        "orbital_period" : "807.6068116937344",
        "perihelion_distance" : ".4309535046134701",
        "perihelion_argument" : "153.8551516741431",
        "aphelion_distance" : "2.963456978063369",
        "perihelion_time" : "2457912.421710684124",
        "mean_anomaly" : "39.26190776823187",
        "mean_motion" : ".445761470541585",
        "equinox" : "J2000"
      }
    }, {
      "links" : {
        "self" : "https://api.nasa.gov/neo/rest/v1/neo/3720978?api_key=t0TVs3DtDT2H8Oy2Zy8m2eVrNsAVKAexjcZXUckd"
      },
      "neo_reference_id" : "3720978",
      "name" : "(2015 LG2)",
      "nasa_jpl_url" : "http://ssd.jpl.nasa.gov/sbdb.cgi?sstr=3720978",
      "absolute_magnitude_h" : 20.3,
      "estimated_diameter" : {
        "kilometers" : {
          "estimated_diameter_min" : 0.2315021222,
          "estimated_diameter_max" : 0.5176544822
        },
        "meters" : {
          "estimated_diameter_min" : 231.5021222103,
          "estimated_diameter_max" : 517.6544821978
        },
        "miles" : {
          "estimated_diameter_min" : 0.1438487052,
          "estimated_diameter_max" : 0.3216554833
        },
        "feet" : {
          "estimated_diameter_min" : 759.5214226325,
          "estimated_diameter_max" : 1698.3415313737
        }
      },
      "is_potentially_hazardous_asteroid" : true,
      "close_approach_data" : [ {
        "close_approach_date" : "2002-01-22",
        "epoch_date_close_approach" : 1011686400000,
        "relative_velocity" : {
          "kilometers_per_second" : "12.3626768559",
          "kilometers_per_hour" : "44505.6366810877",
          "miles_per_hour" : "27654.0718588681"
        },
        "miss_distance" : {
          "astronomical" : "0.4933435977",
          "lunar" : "191.91065979",
          "kilometers" : "73803152",
          "miles" : "45859152"
        },
        "orbiting_body" : "Earth"
      } ],
      "orbital_data" : {
        "orbit_id" : "35",
        "orbit_determination_date" : "2017-04-06 08:33:13",
        "orbit_uncertainty" : "0",
        "minimum_orbit_intersection" : ".0182368",
        "jupiter_tisserand_invariant" : "5.033",
        "epoch_osculation" : "2458000.5",
        "eccentricity" : ".1816245750926944",
        "semi_major_axis" : "1.259393819644585",
        "inclination" : "21.28546587467291",
        "ascending_node_longitude" : "133.1422936356661",
        "orbital_period" : "516.2270569581268",
        "perihelion_distance" : "1.030656952277271",
        "perihelion_argument" : "188.8909328939633",
        "aphelion_distance" : "1.488130687011898",
        "perihelion_time" : "2457761.291135039198",
        "mean_anomaly" : "166.8165010437914",
        "mean_motion" : ".6973675539622113",
        "equinox" : "J2000"
      }
    }, {
      "links" : {
        "self" : "https://api.nasa.gov/neo/rest/v1/neo/3092114?api_key=t0TVs3DtDT2H8Oy2Zy8m2eVrNsAVKAexjcZXUckd"
      },
      "neo_reference_id" : "3092114",
      "name" : "(1993 DA)",
      "nasa_jpl_url" : "http://ssd.jpl.nasa.gov/sbdb.cgi?sstr=3092114",
      "absolute_magnitude_h" : 26.4,
      "estimated_diameter" : {
        "kilometers" : {
          "estimated_diameter_min" : 0.0139493823,
          "estimated_diameter_max" : 0.0311917671
        },
        "meters" : {
          "estimated_diameter_min" : 13.9493822934,
          "estimated_diameter_max" : 31.1917670523
        },
        "miles" : {
          "estimated_diameter_min" : 0.0086677416,
          "estimated_diameter_max" : 0.0193816595
        },
        "feet" : {
          "estimated_diameter_min" : 45.7656914036,
          "estimated_diameter_max" : 102.3351970157
        }
      },
      "is_potentially_hazardous_asteroid" : false,
      "close_approach_data" : [ {
        "close_approach_date" : "2002-01-22",
        "epoch_date_close_approach" : 1011686400000,
        "relative_velocity" : {
          "kilometers_per_second" : "10.1546599848",
          "kilometers_per_hour" : "36556.7759453344",
          "miles_per_hour" : "22714.9589200329"
        },
        "miss_distance" : {
          "astronomical" : "0.2674191605",
          "lunar" : "104.0260543823",
          "kilometers" : "40005336",
          "miles" : "24858164"
        },
        "orbiting_body" : "Earth"
      } ],
      "orbital_data" : {
        "orbit_id" : "12",
        "orbit_determination_date" : "2017-04-06 09:18:21",
        "orbit_uncertainty" : "6",
        "minimum_orbit_intersection" : ".0355467",
        "jupiter_tisserand_invariant" : "6.384",
        "epoch_osculation" : "2458000.5",
        "eccentricity" : ".09290087273231146",
        "semi_major_axis" : ".9360956173801899",
        "inclination" : "12.38480390588035",
        "ascending_node_longitude" : "329.0534793799209",
        "orbital_period" : "330.8100879954508",
        "perihelion_distance" : ".8491315175646783",
        "perihelion_argument" : "354.0644784903601",
        "aphelion_distance" : "1.023059717195701",
        "perihelion_time" : "2458121.114380891518",
        "mean_anomaly" : "228.7428869413935",
        "mean_motion" : "1.088237671896362",
        "equinox" : "J2000"
      }
    } ]
  }
}